{
  "type": "FeatureCollection",
  "features": [
    {
      "type": "Feature",
      "properties": {
        "norad_id": 28890,
        "name": "BEIJING 1",
        "group": "dmc",
        "lat": 50.49332123524123,
        "lon": 93.98891370215591,
        "alt_km": 683.0535595660785,
        "timestamp": "2025-12-02T15:49:06.849638+00:00",
        "meta_object_name": "BEIJING 1",
        "meta_object_id": "2005-043A",
        "meta_epoch": "2025-12-02T07:22:46.091424",
        "meta_mean_motion": 14.63349891,
        "meta_eccentricity": 0.00147726,
        "meta_inclination": 98.2649,
        "meta_ra_of_asc_node": 103.7902,
        "meta_arg_of_pericenter": 173.0999,
        "meta_mean_anomaly": 187.0409,
        "meta_ephemeris_type": 0,
        "meta_classification_type": "U",
        "meta_norad_cat_id": 28890,
        "meta_element_set_no": 999,
        "meta_rev_at_epoch": 7185,
        "meta_bstar": 0.00012580272,
        "meta_mean_motion_dot": 6.02e-06,
        "meta_mean_motion_ddot": 0,
        "tle_line1": "1 28890U 05043A   25336.30747791  .00000602  00000+0  12580-3 0  9992",
        "tle_line2": "2 28890  98.2649 103.7902 0014772 173.0999 187.0409 14.63349891 71856"
      },
      "geometry": {
        "type": "Point",
        "coordinates": [
          93.98891370215591,
          50.49332123524123
        ]
      }
    },
    {
      "type": "Feature",
      "properties": {
        "norad_id": 33320,
        "name": "HUANJING 1A (HJ-1A)",
        "group": "dmc",
        "lat": 72.47423436777244,
        "lon": -59.8228853700138,
        "alt_km": 597.5299572297572,
        "timestamp": "2025-12-02T15:49:06.849661+00:00",
        "meta_object_name": "HUANJING 1A (HJ-1A)",
        "meta_object_id": "2008-041A",
        "meta_epoch": "2025-12-02T07:23:29.992992",
        "meta_mean_motion": 14.83340591,
        "meta_eccentricity": 0.00206811,
        "meta_inclination": 97.6535,
        "meta_ra_of_asc_node": 325.043,
        "meta_arg_of_pericenter": 66.6475,
        "meta_mean_anomaly": 293.6913,
        "meta_ephemeris_type": 0,
        "meta_classification_type": "U",
        "meta_norad_cat_id": 33320,
        "meta_element_set_no": 999,
        "meta_rev_at_epoch": 92921,
        "meta_bstar": 0.00024703614,
        "meta_mean_motion_dot": 1.98e-05,
        "meta_mean_motion_ddot": 0,
        "tle_line1": "1 33320U 08041A   25336.30798603  .00001980  00000+0  24704-3 0  9996",
        "tle_line2": "2 33320  97.6535 325.0430 0020681  66.6475 293.6913 14.83340591929210"
      },
      "geometry": {
        "type": "Point",
        "coordinates": [
          -59.8228853700138,
          72.47423436777244
        ]
      }
    },
    {
      "type": "Feature",
      "properties": {
        "norad_id": 33321,
        "name": "HUANJING 1B (HJ-1B)",
        "group": "dmc",
        "lat": -43.89942954796477,
        "lon": -23.476285066087822,
        "alt_km": 650.8009076904655,
        "timestamp": "2025-12-02T15:49:06.849676+00:00",
        "meta_object_name": "HUANJING 1B (HJ-1B)",
        "meta_object_id": "2008-041B",
        "meta_epoch": "2025-12-02T06:18:06.792768",
        "meta_mean_motion": 14.82777192,
        "meta_eccentricity": 0.00381363,
        "meta_inclination": 97.6395,
        "meta_ra_of_asc_node": 328.7237,
        "meta_arg_of_pericenter": 108.8738,
        "meta_mean_anomaly": 251.6618,
        "meta_ephemeris_type": 0,
        "meta_classification_type": "U",
        "meta_norad_cat_id": 33321,
        "meta_element_set_no": 999,
        "meta_rev_at_epoch": 92922,
        "meta_bstar": 0.00019698886,
        "meta_mean_motion_dot": 1.561e-05,
        "meta_mean_motion_ddot": 0,
        "tle_line1": "1 33321U 08041B   25336.26257862  .00001561  00000+0  19699-3 0  9991",
        "tle_line2": "2 33321  97.6395 328.7237 0038136 108.8738 251.6618 14.82777192929222"
      },
      "geometry": {
        "type": "Point",
        "coordinates": [
          -23.476285066087822,
          -43.89942954796477
        ]
      }
    },
    {
      "type": "Feature",
      "properties": {
        "norad_id": 33446,
        "name": "YAOGAN-4",
        "group": "dmc",
        "lat": -51.72415329178223,
        "lon": 76.70073531221767,
        "alt_km": 633.7555048860559,
        "timestamp": "2025-12-02T15:49:06.849688+00:00",
        "meta_object_name": "YAOGAN-4",
        "meta_object_id": "2008-061A",
        "meta_epoch": "2025-12-02T06:40:27.864192",
        "meta_mean_motion": 14.82628721,
        "meta_eccentricity": 0.00144944,
        "meta_inclination": 97.9168,
        "meta_ra_of_asc_node": 266.481,
        "meta_arg_of_pericenter": 358.2304,
        "meta_mean_anomaly": 1.8855,
        "meta_ephemeris_type": 0,
        "meta_classification_type": "U",
        "meta_norad_cat_id": 33446,
        "meta_element_set_no": 999,
        "meta_rev_at_epoch": 91648,
        "meta_bstar": 0.00026740206,
        "meta_mean_motion_dot": 2.104e-05,
        "meta_mean_motion_ddot": 0,
        "tle_line1": "1 33446U 08061A   25336.27810028  .00002104  00000+0  26740-3 0  9990",
        "tle_line2": "2 33446  97.9168 266.4810 0014494 358.2304   1.8855 14.82628721916482"
      },
      "geometry": {
        "type": "Point",
        "coordinates": [
          76.70073531221767,
          -51.72415329178223
        ]
      }
    },
    {
      "type": "Feature",
      "properties": {
        "norad_id": 35681,
        "name": "DEIMOS-1",
        "group": "dmc",
        "lat": -75.68393710080763,
        "lon": 169.81702822853313,
        "alt_km": 654.5818345345933,
        "timestamp": "2025-12-02T15:49:06.849699+00:00",
        "meta_object_name": "DEIMOS-1",
        "meta_object_id": "2009-041A",
        "meta_epoch": "2025-12-02T08:01:49.848672",
        "meta_mean_motion": 14.7492654,
        "meta_eccentricity": 0.00026654,
        "meta_inclination": 97.7145,
        "meta_ra_of_asc_node": 137.4228,
        "meta_arg_of_pericenter": 98.4794,
        "meta_mean_anomaly": 261.6718,
        "meta_ephemeris_type": 0,
        "meta_classification_type": "U",
        "meta_norad_cat_id": 35681,
        "meta_element_set_no": 999,
        "meta_rev_at_epoch": 87786,
        "meta_bstar": 0.00015613794,
        "meta_mean_motion_dot": 1.001e-05,
        "meta_mean_motion_ddot": 0,
        "tle_line1": "1 35681U 09041A   25336.33460473  .00001001  00000+0  15614-3 0  9997",
        "tle_line2": "2 35681  97.7145 137.4228 0002665  98.4794 261.6718 14.74926540877864"
      },
      "geometry": {
        "type": "Point",
        "coordinates": [
          169.81702822853313,
          -75.68393710080763
        ]
      }
    },
    {
      "type": "Feature",
      "properties": {
        "norad_id": 35683,
        "name": "UK-DMC 2",
        "group": "dmc",
        "lat": -81.586055946052,
        "lon": -179.18218793782944,
        "alt_km": 651.5323982471155,
        "timestamp": "2025-12-02T15:49:06.849709+00:00",
        "meta_object_name": "UK-DMC 2",
        "meta_object_id": "2009-041C",
        "meta_epoch": "2025-12-02T08:04:30.379008",
        "meta_mean_motion": 14.75583931,
        "meta_eccentricity": 0.00012688,
        "meta_inclination": 97.8556,
        "meta_ra_of_asc_node": 111.5337,
        "meta_arg_of_pericenter": 102.817,
        "meta_mean_anomaly": 257.3182,
        "meta_ephemeris_type": 0,
        "meta_classification_type": "U",
        "meta_norad_cat_id": 35683,
        "meta_element_set_no": 999,
        "meta_rev_at_epoch": 87753,
        "meta_bstar": 0.00021424822,
        "meta_mean_motion_dot": 1.412e-05,
        "meta_mean_motion_ddot": 0,
        "tle_line1": "1 35683U 09041C   25336.33646272  .00001412  00000+0  21425-3 0  9995",
        "tle_line2": "2 35683  97.8556 111.5337 0001268 102.8170 257.3182 14.75583931877538"
      },
      "geometry": {
        "type": "Point",
        "coordinates": [
          -179.18218793782944,
          -81.586055946052
        ]
      }
    },
    {
      "type": "Feature",
      "properties": {
        "norad_id": 40715,
        "name": "DMC3-FM1",
        "group": "dmc",
        "lat": -33.59443601578358,
        "lon": -150.64601252650036,
        "alt_km": 615.2467367177323,
        "timestamp": "2025-12-02T15:49:06.849720+00:00",
        "meta_object_name": "DMC3-FM1",
        "meta_object_id": "2015-032A",
        "meta_epoch": "2025-12-02T06:16:14.306880",
        "meta_mean_motion": 14.85410354,
        "meta_eccentricity": 0.00054279,
        "meta_inclination": 97.67,
        "meta_ra_of_asc_node": 203.8349,
        "meta_arg_of_pericenter": 358.2138,
        "meta_mean_anomaly": 1.9057,
        "meta_ephemeris_type": 0,
        "meta_classification_type": "U",
        "meta_norad_cat_id": 40715,
        "meta_element_set_no": 999,
        "meta_rev_at_epoch": 56067,
        "meta_bstar": 0.00013303849,
        "meta_mean_motion_dot": 1.095e-05,
        "meta_mean_motion_ddot": 0,
        "tle_line1": "1 40715U 15032A   25336.26127670  .00001095  00000+0  13304-3 0  9996",
        "tle_line2": "2 40715  97.6700 203.8349 0005427 358.2138   1.9057 14.85410354560676"
      },
      "geometry": {
        "type": "Point",
        "coordinates": [
          -150.64601252650036,
          -33.59443601578358
        ]
      }
    },
    {
      "type": "Feature",
      "properties": {
        "norad_id": 40716,
        "name": "DMC3-FM2",
        "group": "dmc",
        "lat": -25.753468632378375,
        "lon": 21.924458865855826,
        "alt_km": 621.8327473756462,
        "timestamp": "2025-12-02T15:49:06.849730+00:00",
        "meta_object_name": "DMC3-FM2",
        "meta_object_id": "2015-032B",
        "meta_epoch": "2025-12-02T06:48:38.997216",
        "meta_mean_motion": 14.85411811,
        "meta_eccentricity": 0.00060744,
        "meta_inclination": 97.6757,
        "meta_ra_of_asc_node": 205.293,
        "meta_arg_of_pericenter": 2.1352,
        "meta_mean_anomaly": 357.9888,
        "meta_ephemeris_type": 0,
        "meta_classification_type": "U",
        "meta_norad_cat_id": 40716,
        "meta_element_set_no": 999,
        "meta_rev_at_epoch": 56067,
        "meta_bstar": 0.00014258823,
        "meta_mean_motion_dot": 1.177e-05,
        "meta_mean_motion_ddot": 0,
        "tle_line1": "1 40716U 15032B   25336.28378469  .00001177  00000+0  14259-3 0  9994",
        "tle_line2": "2 40716  97.6757 205.2930 0006074   2.1352 357.9888 14.85411811560678"
      },
      "geometry": {
        "type": "Point",
        "coordinates": [
          21.924458865855826,
          -25.753468632378375
        ]
      }
    },
    {
      "type": "Feature",
      "properties": {
        "norad_id": 40717,
        "name": "DMC3-FM3",
        "group": "dmc",
        "lat": 82.27815526035741,
        "lon": 111.75106221065951,
        "alt_km": 604.690783195163,
        "timestamp": "2025-12-02T15:49:06.849741+00:00",
        "meta_object_name": "DMC3-FM3",
        "meta_object_id": "2015-032C",
        "meta_epoch": "2025-12-02T05:42:41.834016",
        "meta_mean_motion": 14.854053,
        "meta_eccentricity": 0.00054308,
        "meta_inclination": 97.6812,
        "meta_ra_of_asc_node": 206.875,
        "meta_arg_of_pericenter": 4.418,
        "meta_mean_anomaly": 355.7083,
        "meta_ephemeris_type": 0,
        "meta_classification_type": "U",
        "meta_norad_cat_id": 40717,
        "meta_element_set_no": 999,
        "meta_rev_at_epoch": 56067,
        "meta_bstar": 0.00010255731,
        "meta_mean_motion_dot": 8.32e-06,
        "meta_mean_motion_ddot": 0,
        "tle_line1": "1 40717U 15032C   25336.23798419  .00000832  00000+0  10256-3 0  9991",
        "tle_line2": "2 40717  97.6812 206.8750 0005430   4.4180 355.7083 14.85405300560676"
      },
      "geometry": {
        "type": "Point",
        "coordinates": [
          111.75106221065951,
          82.27815526035741
        ]
      }
    }
  ]
}